[{"OBJECT_NAME":"TECHDEMOSAT-1 (TDS-1)","OBJECT_ID":"2014-037H","EPOCH":"2026-03-09T22:08:12.399936","MEAN_MOTION":15.11581991,"ECCENTRICITY":0.0004745,"INCLINATION":98.3776,"RA_OF_ASC_NODE":51.4583,"ARG_OF_PERICENTER":234.81,"MEAN_ANOMALY":125.2683,"EPHEMERIS_TYPE":0,"CLASSIFICATION_TYPE":"U","NORAD_CAT_ID":40076,"ELEMENT_SET_NO":999,"REV_AT_EPOCH":63322,"BSTAR":0.00065800271,"MEAN_MOTION_DOT":0.00011104,"MEAN_MOTION_DDOT":0},{"OBJECT_NAME":"STARLINK-3558","OBJECT_ID":"2022-029AH","EPOCH":"2026-03-09T06:06:46.734912","MEAN_MOTION":15.08824172,"ECCENTRICITY":0.00013971,"INCLINATION":53.2184,"RA_OF_ASC_NODE":81.0812,"ARG_OF_PERICENTER":61.7414,"MEAN_ANOMALY":298.3719,"EPHEMERIS_TYPE":0,"CLASSIFICATION_TYPE":"U","NORAD_CAT_ID":52119,"ELEMENT_SET_NO":999,"REV_AT_EPOCH":22072,"BSTAR":-7.4606671e-5,"MEAN_MOTION_DOT":-1.475e-5,"MEAN_MOTION_DDOT":0}]
